BEIDOU 3 (C01)          
1 36287U 10001A   22269.82757644 -.00000276  00000+0  00000+0 0  9996
2 36287   1.6817  47.2830 0000606 302.0356  94.6853  1.00269553 46530
BEIDOU 5 (C06)          
1 36828U 10036A   22269.75731272 -.00000123  00000+0  00000+0 0  9997
2 36828  54.1985 175.3039 0030232 187.5273  23.2752  1.00269431 44591
BEIDOU 6 (C04)          
1 37210U 10057A   22269.83452110 -.00000109  00000+0  00000+0 0  9990
2 37210   0.7392  38.2772 0007089 150.2854 277.4605  1.00270402 43659
BEIDOU 7 (C07)          
1 37256U 10068A   22269.91194387 -.00000173  00000+0  00000+0 0  9991
2 37256  50.0319 288.4318 0023976 204.7599 308.9950  1.00274985 43164
BEIDOU 8 (C08)          
1 37384U 11013A   22269.86039412 -.00000164  00000+0  00000+0 0  9995
2 37384  60.4399  53.2570 0024322 178.0873 192.3394  1.00280708 42044
BEIDOU 9 (C09)          
1 37763U 11038A   22269.82814604 -.00000073  00000+0  00000+0 0  9992
2 37763  54.4796 177.8057 0098888 227.8113 352.2000  1.00260105 41016
BEIDOU 10 (C10)         
1 37948U 11073A   22268.39161056 -.00000120  00000+0  00000+0 0  9996
2 37948  50.1516 288.0942 0086824 219.7408  93.3821  1.00271470 39755
BEIDOU 11 (C05)         
1 38091U 12008A   22269.88452146  .00000061  00000+0  00000+0 0  9996
2 38091   1.7872  69.8389 0009997 339.3541 333.6396  1.00269310 38841
BEIDOU 12 (C11)         
1 38250U 12018A   22269.62389375 -.00000074  00000+0  00000+0 0  9994
2 38250  56.6631 350.2195 0023137 250.1400 110.8674  1.86234362 70975
BEIDOU 13 (C12)         
1 38251U 12018B   22269.49669628 -.00000074  00000+0  00000+0 0  9992
2 38251  56.5785 349.5409 0014155 250.0269  69.8523  1.86234123 70966
BEIDOU 15 (C14)         
1 38775U 12050B   22269.53382622  .00000058  00000+0  00000+0 0  9991
2 38775  55.4583 108.2832 0011987 333.7585 206.9035  1.86231382 68346
BEIDOU 16 (C02)         
1 38953U 12059A   22270.13243859 -.00000172  00000+0  00000+0 0  9992
2 38953   1.1708  81.2080 0023876 295.6342 120.9213  1.00271248 36421
BEIDOU 17 (C31)         
1 40549U 15019A   22269.90453878 -.00000149  00000+0  00000+0 0  9996
2 40549  51.7103 311.5780 0038662 198.0819 277.5341  1.00275344 27450
BEIDOU 18 (C57)         
1 40748U 15037A   22269.67670964 -.00000073  00000+0  00000+0 0  9994
2 40748  55.8281 348.3406 0000977  29.4655 320.4255  1.86233681 48793
BEIDOU 19 (C58)         
1 40749U 15037B   22269.48916920 -.00000074  00000+0  00000+0 0  9990
2 40749  55.8313 348.3367 0003172 297.7613  60.5753  1.86233008 48787
BEIDOU 20 (C18)         
1 40938U 15053A   22269.91420313 -.00000113  00000+0  00000+0 0  9996
2 40938  51.3469 274.7039 0046020 200.3064 316.2389  1.00269680 25723
BEIDOU IGSO-6 (C13)     
1 41434U 16021A   22269.83774486 -.00000132  00000+0  00000+0 0  9999
2 41434  58.2504  51.7863 0045535 215.0439 135.0578  1.00263336 23848
BEIDOU-2 G7 (C03)       
1 41586U 16037A   22269.81101420 -.00000350  00000+0  00000+0 0  9996
2 41586   1.5949  68.0354 0007706 353.7984 346.2709  1.00268768 23159
BEIDOU-3 M1 (C19)       
1 43001U 17069A   22269.02618872  .00000060  00000+0  00000+0 0  9990
2 43001  55.6122 108.3140 0007856 296.9913  59.6840  1.86231713 33261
BEIDOU-3 M2 (C20)       
1 43002U 17069B   22269.50882690  .00000058  00000+0  00000+0 0  9992
2 43002  55.6109 108.3332 0006407 326.7099  36.4271  1.86231274 33272
BEIDOU-3 M3 (C27)       
1 43107U 18003A   22268.83891238 -.00000077  00000+0  00000+0 0  9992
2 43107  55.2806 349.2419 0003641  70.1244  10.1522  1.86232812 32028
BEIDOU-3 M4 (C28)       
1 43108U 18003B   22269.72688412 -.00000075  00000+0  00000+0 0  9998
2 43108  55.2742 349.2001 0003567 236.2498 122.6849  1.86230950 32031
BEIDOU-3 M5 (C21)       
1 43207U 18018A   22269.63603290  .00000058  00000+0  00000+0 0  9995
2 43207  55.5708 108.4039 0004674   5.7051 354.3908  1.86231666 31423
BEIDOU-3 M6 (C22)       
1 43208U 18018B   22268.09186770  .00000060  00000+0  00000+0 0  9997
2 43208  55.5689 108.4609 0006108 313.4270  46.6170  1.86231577 31390
BEIDOU-3 M7 (C29)       
1 43245U 18029A   22269.46967713 -.00000073  00000+0  00000+0 0  9991
2 43245  55.1901 346.9814 0001048 197.8005 215.8779  1.86232748 30574
BEIDOU-3 M8 (C30)       
1 43246U 18029B   22268.32798619 -.00000076  00000+0  10000-3 0  9991
2 43246  55.1870 347.0501 0002806 357.3793  57.4650  1.86232950 30545
BEIDOU IGSO-7 (C16)     
1 43539U 18057A   22269.68087580 -.00000130  00000+0  00000+0 0  9991
2 43539  55.0919 174.8367 0052121 227.7694 322.3410  1.00279730 15526
BEIDOU-3 M9 (C23)       
1 43581U 18062A   22269.81326016  .00000025  00000+0  00000+0 0  9991
2 43581  54.2522 228.6152 0005815 277.5019 264.4297  1.86231883 28317
BEIDOU-3 M10 (C24)      
1 43582U 18062B   22270.08649184  .00000028  00000+0  00000+0 0  9990
2 43582  54.2514 228.5948 0005272 342.4321 114.5920  1.86232321 28323
BEIDOU-3 M11 (C25)      
1 43602U 18067A   22269.43060376  .00000022  00000+0  00000+0 0  9999
2 43602  54.3351 227.2416 0007013   2.3283  56.1279  1.86231539 27806
BEIDOU-3 M12 (C26)      
1 43603U 18067B   22270.01941755  .00000027  00000+0  00000+0 0  9990
2 43603  54.3314 227.1878 0004344 345.4185  18.1680  1.86231491 27837
BEIDOU-3 M13 (C32)      
1 43622U 18072A   22269.15778459  .00000059  00000+0  00000+0 0  9994
2 43622  55.5370 107.9714 0004619 292.1334 242.7945  1.86231767 27325
BEIDOU-3 M14 (C33)      
1 43623U 18072B   22270.14295968  .00000055  00000+0  00000+0 0  9991
2 43623  55.5400 107.9305 0003129 337.4491 228.2331  1.86231778 27340
BEIDOU-3 M15 (C34)      
1 43647U 18078A   22269.46588709 -.00000074  00000+0  10000-3 0  9991
2 43647  55.0846 347.1318 0005090   2.5857   4.8157  1.86233090 26849
BEIDOU-3 M16 (C35)      
1 43648U 18078B   22269.59493884 -.00000074  00000+0  00000+0 0  9990
2 43648  55.0814 347.1330 0003064  22.5262 338.9851  1.86232262 26864
BEIDOU-3 G1 (C59)       
1 43683U 18085A   22269.82757644 -.00000274  00000+0  00000+0 0  9992
2 43683   1.0045 150.6811 0004321  46.5429 246.3980  1.00269957 14420
BEIDOU-3 M17 (C36)      
1 43706U 18093A   22269.20626310  .00000020  00000+0  00000+0 0  9992
2 43706  54.3344 228.5290 0010608 278.8549  80.9891  1.86231907 26214
BEIDOU-3 M18 (C37)      
1 43707U 18093B   22269.88073281  .00000026  00000+0  00000+0 0  9996
2 43707  54.3349 228.4963 0009277 299.1699 244.1881  1.86232255 26218
BEIDOU-3 IGSO-1 (C38)   
1 44204U 19023A   22269.93407926 -.00000196  00000+0  00000+0 0  9995
2 44204  56.7104  51.8843 0023669 188.6983 221.1152  1.00279182 12734
BEIDOU-2 G8             
1 44231U 19027A   22269.82757644 -.00000242  00000+0  00000+0 0  9994
2 44231   1.1011  79.0469 0006140 117.9327 251.1240  1.00273368 12442
BEIDOU-3 IGSO-2 (C39)   
1 44337U 19035A   22269.68366109 -.00000127  00000+0  00000+0 0  9998
2 44337  55.1293 170.8244 0025660 191.9772   8.5826  1.00273526 12063
BEIDOU-3 M23 (C45)      
1 44542U 19061A   22268.06863102  .00000012  00000+0  00000+0 0  9993
2 44542  54.5610 228.7293 0008886 332.8498  27.0672  1.86231495 20445
BEIDOU-3 M24 (C46)      
1 44543U 19061B   22269.52843847  .00000023  00000+0  00000+0 0  9992
2 44543  54.5592 228.6489 0006472 313.9805 216.1089  1.86231800 20467
BEIDOU-3 IGSO-3         
1 44709U 19073A   22269.98118745 -.00000148  00000+0  10000-3 0  9995
2 44709  57.0998 295.3298 0027562 182.3955   1.3801  1.00278304 10815
BEIDOU-3 M21            
1 44793U 19078A   22269.53282617 -.00000074  00000+0  10000-3 0  9992
2 44793  54.9334 347.1378 0005078  14.9991 351.0127  1.86232295 19336
BEIDOU-3 M22            
1 44794U 19078B   22269.67943014 -.00000074  00000+0  00000+0 0  9998
2 44794  54.9074 347.1234 0002890   3.5548  12.5864  1.86232787 19333
BEIDOU-3 M19            
1 44864U 19090A   22270.21434111  .00000055  00000+0  00000+0 0  9993
2 44864  55.4728 108.1413 0015001 270.3322 298.8335  1.86231971 18929
BEIDOU-3 M20            
1 44865U 19090B   22269.74888978  .00000057  00000+0  00000+0 0  9996
2 44865  55.4747 108.1893 0013247 286.2658  60.6842  1.86231884 18887
BEIDOU-3 G2             
1 45344U 20017A   22269.88051748 -.00000140  00000+0  00000+0 0  9996
2 45344   2.0166 357.1816 0003992 156.6354 248.8945  1.00271379  9639
BEIDOU-3 G3             
1 45807U 20040A   22269.81092205 -.00000352  00000+0  00000+0 0  9997
2 45807   1.2216 306.6093 0008383 336.3135 125.1345  1.00276097  8451
